# Colors are mainly derived from B-V and V-R indices, most of which
# come from the MBOSS compilation: http://www.eso.org/~ohainaut/MBOSS/
# and converted using Askaniy's TrueColorTools:
# https://github.com/Askaniy/TrueColorTools
# or FarGetaNik's color calculator:
# https://docs.google.com/spreadsheets/d/1_mMXYzeYE4JcXJFrn4j5XWJvf2ik13r8v1BZ7G9I4EY/
# Centaur colors are derived from SMASS spectra and converted
# to RGB values using Matt Wronkiewicz's spectrum2rgb utility
# that is distributed with the Celestia source package.
# These are then scaled for albedo = 0.5 textures by dividing 0.735357 with them.
# https://docs.google.com/spreadsheets/d/1POAssGnBsFBGyoevCkom8sHODIgdsn_s/edit

# Orbits for satellites have been taken from Emelyanov & Drozdov (2020), MNRAS 494 (2), 2410
# "Determination of the orbits of 62 moons of asteroids based on astrometric observations."
# with exceptions being listed as comments over this file.
# In cases where the system barycenters have been defined as ReferencePoints, the
# mass ratios (and thus relative semi-major axes) have been computed from the cube of
# the component sizes, under the assumption of equal densities for both of them.

# Likely dwarf planets

# Braga-Ribas et al. (2013), ApJ 773 (1), 26
# "The Size, Shape, Albedo, Density, and Atmospheric Limit of Transneptunian Object
# (50000) Quaoar from Multi-chord Stellar Occultations"
# https://iopscience.iop.org/article/10.1088/0004-637X/773/1/26
# Mass, radii, and rotation period from Morgado et al. (2023), Nature 614, 239–243
# "A dense ring of the trans-Neptunian object Quaoar outside its Roche limit"
# https://ui.adsabs.harvard.edu/abs/2023Natur.614..239M/abstract
# Ring rotation axis and geometric albedo from Pereira et al. (2023), A&A 673, 14
# "The two rings of (50000) Quaoar"
# https://ui.adsabs.harvard.edu/abs/2023A%26A...673L...4P/abstract
# Bond albedo from Verbiscer et al. (2022), Planet. Sci. J. 3, 95
# "The Diverse Shapes of Dwarf Planet and Large KBO Phase Curves Observed from New Horizons"
# https://ui.adsabs.harvard.edu/abs/2022PSJ.....3...95V/abstract
"50000 Quaoar:Quaoar:2002 LM60" "Sol"
{
	Class	"dwarfplanet"
	Texture	"asteroid.*"
	Color	[ 0.557 0.519 0.469 ]
	BlendTexture	true
	Radius	579.5  # equatorial
	Oblateness	0.12  # projected
	Mass	0.0002009377
	EllipticalOrbit
	{
		Epoch	2458600.5  # 2019 Apr 27
		Period	288.784516916471
		SemiMajorAxis	43.689506100204
		Eccentricity	0.03955774099
		Inclination	7.988143985547
		AscendingNode	188.837473399366
		ArgOfPericenter	146.461981388786
		MeanAnomaly	300.65535440942
	}
	BodyFrame	{ EquatorJ2000 {} }
	UniformRotation	# assume alignment of ring and equator
	{
		Period	17.6788
		Inclination	36.55
		AscendingNode	349.82
	}
	Rings
	{
		Inner	2515
		Outer	4087
		Texture	"quaoar-rings.*"
	}
	LunarLambert	0.5
	GeomAlbedo	0.124
	BondAlbedo	0.057
	InfoURL	"https://en.wikipedia.org/wiki/50000_Quaoar"
}

# Radius and geometric albedo from Fernandez-Valenzuela et al., 55th Annual DPS Meeting Joint with EPSC
# "Weywot: the darkest known satellite in the trans-Neptunian region"
# https://submissions.mirasmart.com/DPS55/Itinerary/PresentationDetail.aspx?evdid=75
"Weywot:50000 Quaoar I:Quaoar I:S 2006 (50000) 1" "Sol/Quaoar"
{
	Class	"minormoon"
	Mesh	"asteroid.cms"  # almost 200 km effective diameter
	Texture	"asteroid.*"
	Color	[ 0.319 0.296 0.265 ]  # assume same photometric color as primary
	BlendTexture	true
	Radius	100
	OrbitFrame
	{
		EquatorJ2000	{ Center "Sol/Quaoar" }
	}
	EllipticalOrbit
	{
		Epoch	2453300.5  # 2004 Oct 22
		Period	12.4315
		SemiMajorAxis	13583
		Eccentricity	0.057
		Inclination	36.9
		AscendingNode	357.0
		ArgOfPericenter	10.1
		MeanAnomaly	69.2
	}
	UniformRotation  # to match orbit plane
	{
		Inclination	13.5
		AscendingNode	352.3
	}
	LunarLambert	0.5
	GeomAlbedo	0.04
	InfoURL	"https://en.wikipedia.org/wiki/Weywot_(moon)"
}

"90377 Sedna:Sedna:2003 VB12" "Sol"
{
	Class	"dwarfplanet"
	Texture	"asteroid.*"
	Color	[ 0.978 0.886 0.746 ]
	BlendTexture	true
	Radius	497.5
	EllipticalOrbit
	{
		Epoch	2459000.5  # 2020 May 31
		Period	10662.6713802939
		SemiMajorAxis	484.438385675118
		Eccentricity	0.842587388666
		Inclination	11.930691895012
		AscendingNode	144.247866905974
		ArgOfPericenter	311.352204298832
		MeanAnomaly	358.116930442029
	}
	UniformRotation
	{
		Period	10.273
	}
	LunarLambert	0.5
	GeomAlbedo	0.32
	InfoURL	"https://en.wikipedia.org/wiki/90377_Sedna"
}

# Brown & Butler (2018), AJ 156 (4), 164
# "Medium-sized Satellites of Large Kuiper Belt Objects"
# https://iopscience.iop.org/article/10.3847/1538-3881/aad9f2
# Secondary size from Sickafoose et al. (2019), Icarus 319, 657
# "A stellar occultation by Vanth, a satellite of (90482) Orcus"
# https://arxiv.org/abs/1810.08977
# Masses from Brown and Butler (2023), Planet. Sci. J. 4, 193
# "Masses and Densities of Dwarf Planet Satellites Measured with ALMA"
# https://ui.adsabs.harvard.edu/abs/2023PSJ.....4..193B/abstract
ReferencePoint "Orcus-Vanth" "Sol"
{
	EllipticalOrbit
	{
		Epoch	2458600.5  # 2019 Apr 27
		Period	246.057751828792
		SemiMajorAxis	39.266232423648
		Eccentricity	0.224154696
		Inclination	20.593075065434
		AscendingNode	268.806388631985
		ArgOfPericenter	72.159737740794
		MeanAnomaly	180.346243925382
	}
	# Make the orbit and label visible
	Visible true
	Clickable true
}

"90482 Orcus:Orcus:2004 DW" "Sol"
{
	Class	"dwarfplanet"
	Texture	"asteroid.*"
	Color	[ 0.698 0.706 0.709 ]
	BlendTexture	true
	Radius	455
	Mass	0.00009125921
	OrbitFrame
	{
		EquatorJ2000	{ Center "Sol/Orcus-Vanth" }
	}
	EllipticalOrbit
	{
		Epoch	2454000.0  # 2006 Sept 21 12:00
		Period	9.3072
		SemiMajorAxis	940
		Eccentricity	0.021
		Inclination	100.2
		AscendingNode	87.2
		ArgOfPericenter	305.6
		MeanAnomaly	321.4
	}
	UniformRotation  # to match mutual orbit
	{
		Inclination	98.2
		AscendingNode	83.3
	}
	LunarLambert	0.5
	GeomAlbedo	0.231
	InfoURL	"https://en.wikipedia.org/wiki/90482_Orcus"
}

"Vanth:90482 Orcus I:Orcus I:S 2005 (90482) 1" "Sol/Orcus"
{
	Class	"moon"
	Texture	"asteroid.*"
	Color	[ 0.438 0.423 0.404 ]
	BlendTexture	true
	Radius	221.25
	Mass	0.0000145680
	OrbitFrame
	{
		EquatorJ2000	{ Center "Sol/Orcus-Vanth" }
	}
	EllipticalOrbit
	{
		Epoch	2454000.0  # 2006 Sept 21 12:00
		Period	9.3072
		SemiMajorAxis	8175
		Eccentricity	0.021
		Inclination	100.2
		AscendingNode	87.2
		ArgOfPericenter	125.6
		MeanAnomaly	321.4
	}
	LunarLambert	0.5
	GeomAlbedo	0.08
	InfoURL	"https://en.wikipedia.org/wiki/Vanth_(moon)"
}

# Kiss et al. (2019), Icarus 334, 3
# "The mass and density of the dwarf planet (225088) 2007 OR10"
# https://arxiv.org/abs/1903.05439
# Color indices from Boehnhardt et al. (2014), EMP 114 (1-2), 35
# "Photometry of Transneptunian Objects for the Herschel Key Program 'TNOs are Cool'"
"225088 Gonggong:Gonggong:2007 OR10" "Sol"
{
	Class	"dwarfplanet"
	Texture	"asteroid.*"
	Color	[ 0.622 0.542 0.42 ]
	BlendTexture	true
	Radius	615
	Oblateness	0.03
	Mass	0.0002930342
	EllipticalOrbit
	{
		Epoch	2459000.5  # 2020 May 31
		Period	554.216220202748
		SemiMajorAxis	67.47051418678518
		Eccentricity	0.5004814860780427
		Inclination	30.6568537182735
		AscendingNode	336.8538560791695
		ArgOfPericenter	207.6663020246991
		MeanAnomaly	106.0196839227434
	}
	UniformRotation  # assume coplanarity with satellite orbit
	{
		Period	22.40
		Inclination	63.553
		AscendingNode	35.972
	}
	LunarLambert	0.5
	GeomAlbedo	0.14
	InfoURL	"https://en.wikipedia.org/wiki/225088_Gonggong"
}

# Radius from Arakawa et al. (2021), AJ 162, no. 6, 226
# "Tidal Evolution of the Eccentric Moon around Dwarf Planet (225088) Gonggong"
# https://ui.adsabs.harvard.edu/abs/2021AJ....162..226A/abstract
# Geometric albedo is calculated using this radius.
"Xiangliu:225088 Gonggong I:Gonggong I:S 2010 (225088) 1" "Sol/Gonggong"
{
	Class	"minormoon"
	Mesh	"asteroid.cms"
	Texture	"asteroid.*"
	Color	[ 0.448 0.421 0.385 ]
	BlendTexture	true
	Radius	100
	OrbitFrame
	{
		EquatorJ2000	{ Center "Sol/Gonggong" }
	}
	EllipticalOrbit  # prograde solution
	{
		Epoch	2457000.0  # 2014 Dec 08 12:00
		Period	25.22073
		SemiMajorAxis	24021
		Eccentricity	0.2908
		Inclination	83.08
		AscendingNode	31.99
		ArgOfPericenter	77.06
		MeanAnomaly	96.52
	}
	LunarLambert	0.5
	GeomAlbedo	0.08
	InfoURL	"https://en.wikipedia.org/wiki/Xiangliu_(moon)"
}

# Notable centaurs

# Ortiz et al. (2015), A&A 576, A18
# "Possible ring material around centaur (2060) Chiron"
# https://www.aanda.org/articles/aa/abs/2015/04/aa24461-14/aa24461-14.html
# Geometric albedo from Braga-Ribas et al. (2023), A&A 676, A72
# "Constraints on (2060) Chiron's size, shape, and surrounding material from
# the November 2018 and September 2019 stellar occultations"
# https://ui.adsabs.harvard.edu/abs/2023A%26A...676A..72B/abstract
